IRIDIUM 144             
1 43249U 18030A   25188.15550232  .00000010  00000+0 -35008-5 0  9993
2 43249  86.3944  74.6547 0002007  83.5239 276.6185 14.34217470380706
IRIDIUM 149             
1 43250U 18030B   25187.74323382  .00000154  00000+0  47989-4 0  9991
2 43250  86.3947  74.7984 0002077  83.8426 276.3007 14.34217421380644
IRIDIUM 157             
1 43251U 18030C   25188.18087309  .00000032  00000+0  42289-5 0  9991
2 43251  86.3948  74.6610 0002298  90.3502 269.7957 14.34217765380689
IRIDIUM 140             
1 43252U 18030D   25188.13013221  .00000024  00000+0  15356-5 0  9995
2 43252  86.3948  74.6957 0002115  80.3254 279.8180 14.34217575380730
IRIDIUM 145             
1 43253U 18030E   25187.76860350  .00000025  00000+0  17374-5 0  9990
2 43253  86.3948  74.8196 0001791  80.5174 279.6224 14.34217650380618
IRIDIUM 146             
1 43254U 18030F   25187.74957493  .00000062  00000+0  15013-4 0  9992
2 43254  86.3946  74.8411 0001821  80.7591 279.3810 14.34218111380628
IRIDIUM 148             
1 43255U 18030G   25187.78763997  .00000174  00000+0  55250-4 0  9992
2 43255  86.3950  74.8632 0002046  88.7926 271.3505 14.34215932380664
IRIDIUM 142             
1 43256U 18030H   25187.75591808  .00000026  00000+0  21373-5 0  9996
2 43256  86.3946  74.7778 0001670  81.0217 279.1168 14.34217647380623
